[
  {
    "name": "KUIPER-00538",
    "noradId": "69608",
    "line1": "1 69608U 26140S   26177.16668980 -.00008206  00000+0 -21089-3 0  9999",
    "line2": "2 69608  51.8820 355.3452 0005448 263.2291 120.1028 15.37261461  2538"
  },
  {
    "name": "KUIPER-00540",
    "noradId": "69609",
    "line1": "1 69609U 26140T   26177.16668980 -.00010543  00000+0 -27930-3 0  9998",
    "line2": "2 69609  51.8824 355.3883 0005429 314.5830  48.4182 15.36681463  2023"
  },
  {
    "name": "KUIPER-00541",
    "noradId": "69610",
    "line1": "1 69610U 26140U   26177.16668980 -.00008468  00000+0 -21331-3 0  9992",
    "line2": "2 69610  51.8831 355.3146 0007000 242.8470 156.1331 15.37900430  2533"
  },
  {
    "name": "KUIPER-00542",
    "noradId": "69611",
    "line1": "1 69611U 26140V   26177.16668980 -.00008888  00000+0 -22301-3 0  9997",
    "line2": "2 69611  51.8798 355.2946 0007409 226.4247 180.3557 15.38086996  1638"
  },
  {
    "name": "KUIPER-00543",
    "noradId": "69612",
    "line1": "1 69612U 26140W   26177.16668980 -.00013537  00000+0 -36520-3 0  9993",
    "line2": "2 69612  51.8793 355.4017 0006687 330.5700  22.4491 15.36384049  1869"
  },
  {
    "name": "KUIPER-00544",
    "noradId": "69613",
    "line1": "1 69613U 26140X   26177.16668980 -.00008968  00000+0 -22765-3 0  9992",
    "line2": "2 69613  51.8798 355.3190 0006455 243.0934 151.6285 15.37756795  2135"
  },
  {
    "name": "KUIPER-00546",
    "noradId": "69614",
    "line1": "1 69614U 26140Y   26177.16668980 -.00006277  00000+0 -15182-3 0  9999",
    "line2": "2 69614  51.8796 355.1691 0015256 191.8350 276.9903 15.38459046  2564"
  },
  {
    "name": "KUIPER-00547",
    "noradId": "69615",
    "line1": "1 69615U 26140Z   26177.16668980 -.00007391  00000+0 -17740-3 0  9990",
    "line2": "2 69615  51.8832 355.2377 0011539 211.9393 224.2118 15.39065726  1303"
  },
  {
    "name": "KUIPER-00549",
    "noradId": "69616",
    "line1": "1 69616U 26140AA  26177.16668980 -.00009964  00000+0 -26139-3 0  9991",
    "line2": "2 69616  51.8800 355.3704 0006156 306.6840  62.5202 15.36902085  2473"
  },
  {
    "name": "KUIPER-00550",
    "noradId": "69617",
    "line1": "1 69617U 26140AB  26177.16668980 -.00015641  00000+0 -43839-3 0  9997",
    "line2": "2 69617  51.8801 355.4474 0006475 359.0890 332.3799 15.35339505  1851"
  },
  {
    "name": "KUIPER-00551",
    "noradId": "69618",
    "line1": "1 69618U 26140AC  26177.16668980 -.00004298  00000+0 -97061-4 0  9991",
    "line2": "2 69618  51.8797 355.2025 0013516 204.2140 248.0264 15.39552900  1309"
  },
  {
    "name": "KUIPER-00554",
    "noradId": "69619",
    "line1": "1 69619U 26140AD  26177.16668980 -.00007515  00000+0 -17971-3 0  9998",
    "line2": "2 69619  51.8797 355.2284 0011849 212.4350 227.0338 15.39201520  2284"
  },
  {
    "name": "KUIPER-00555",
    "noradId": "69620",
    "line1": "1 69620U 26140AE  26177.16668980 -.00003777  00000+0 -84488-4 0  9994",
    "line2": "2 69620  51.8830 355.2166 0012595 205.7789 240.4560 15.39420353  2084"
  },
  {
    "name": "KUIPER-00556",
    "noradId": "69621",
    "line1": "1 69621U 26140AF  26177.16668980 -.00001341  00000+0 -24796-4 0  9996",
    "line2": "2 69621  51.8819 355.2093 0012709 194.9390 254.4566 15.37848163  2289"
  },
  {
    "name": "KUIPER-00557",
    "noradId": "69622",
    "line1": "1 69622U 26140AG  26177.16668980 -.00006288  00000+0 -15072-3 0  9998",
    "line2": "2 69622  51.8822 355.2547 0010784 219.1619 208.3645 15.38811484  1443"
  },
  {
    "name": "KUIPER-00560",
    "noradId": "69623",
    "line1": "1 69623U 26140AH  26177.16668980 -.00008886  00000+0 -22048-3 0  9996",
    "line2": "2 69623  51.8798 355.2774 0008761 227.5733 187.5912 15.38408915  2199"
  },
  {
    "name": "KUIPER-00561",
    "noradId": "69624",
    "line1": "1 69624U 26140AJ  26177.16668980 -.00008478  00000+0 -21083-3 0  9992",
    "line2": "2 69624  51.8832 355.2897 0008131 227.1086 183.9244 15.38277550  2404"
  },
  {
    "name": "KUIPER-00564",
    "noradId": "69625",
    "line1": "1 69625U 26140AK  26177.16668980 -.00008098  00000+0 -19900-3 0  9996",
    "line2": "2 69625  51.8821 355.2697 0009547 218.4792 201.6878 15.38546805  1862"
  },
  {
    "name": "KUIPER-00567",
    "noradId": "69626",
    "line1": "1 69626U 26140AL  26177.16668980 -.00002023  00000+0 -42445-4 0  9990",
    "line2": "2 69626  51.8787 355.1971 0013348 197.1422 257.7014 15.38060880  2594"
  },
  {
    "name": "KUIPER-00573",
    "noradId": "69627",
    "line1": "1 69627U 26140AM  26177.16668980 -.00001028  00000+0 -17049-4 0  9997",
    "line2": "2 69627  51.8798 355.2496 0010136 210.1545 219.0119 15.37191445  2536"
  }
]